{"type": "FeatureCollection", "features": [ {"type": "Feature", "properties": {"norad_id": 66564, "name": "STARLINK-35358", "group": "last-30-days", "lat": 24.88789414769953, "lon": -165.79219347916464, "alt_km": 363.7275894561035, "timestamp": "2025-12-05T09:41:17.889689+00:00", "meta": {"OBJECT_NAME": "STARLINK-35358", "OBJECT_ID": "2025-268H", "EPOCH": "2025-12-04T18:00:02.000160", "MEAN_MOTION": 15.69901598, "ECCENTRICITY": 0.0001601, "INCLINATION": 42.9986, "RA_OF_ASC_NODE": 168.2757, "ARG_OF_PERICENTER": 266.6639, "MEAN_ANOMALY": 36.0144, "EPHEMERIS_TYPE": 0, "CLASSIFICATION_TYPE": "U", "NORAD_CAT_ID": 66564, "ELEMENT_SET_NO": 999, "REV_AT_EPOCH": 333, "BSTAR": -0.017736, "MEAN_MOTION_DOT": -0.0193734, "MEAN_MOTION_DDOT": 0}, "tle": {"line1": "1 66564U 25268H   25338.75002315 -.01937340  00000+0 -17736-1 0  9997", "line2": "2 66564  42.9986 168.2757 0001601 266.6639  36.0144 15.69901598  3339"}}, "geometry": {"type": "Point", "coordinates": [-165.79219347916464, 24.88789414769953]}}, {"type": "Feature", "properties": {"norad_id": 66565, "name": "STARLINK-35893", "group": "last-30-days", "lat": 26.01342529052743, "lon": -164.0738746523892, "alt_km": 363.61291032615554, "timestamp": "2025-12-05T09:41:17.889699+00:00", "meta": {"OBJECT_NAME": "STARLINK-35893", "OBJECT_ID": "2025-268J", "EPOCH": "2025-12-04T18:00:02.000160", "MEAN_MOTION": 15.6989749, "ECCENTRICITY": 0.0001647, "INCLINATION": 42.9987, "RA_OF_ASC_NODE": 168.2706, "ARG_OF_PERICENTER": 266.0584, "MEAN_ANOMALY": 38.5392, "EPHEMERIS_TYPE": 0, "CLASSIFICATION_TYPE": "U", "NORAD_CAT_ID": 66565, "ELEMENT_SET_NO": 999, "REV_AT_EPOCH": 338, "BSTAR": -0.017686, "MEAN_MOTION_DOT": -0.01932308, "MEAN_MOTION_DDOT": 0}, "tle": {"line1": "1 66565U 25268J   25338.75002315 -.01932308  00000+0 -17686-1 0  9991", "line2": "2 66565  42.9987 168.2706 0001647 266.0584  38.5392 15.69897490  3380"}}, "geometry": {"type": "Point", "coordinates": [-164.0738746523892, 26.01342529052743]}}, {"type": "Feature", "properties": {"norad_id": 66566, "name": "STARLINK-35871", "group": "last-30-days", "lat": 27.11688682489602, "lon": -162.32410803278935, "alt_km": 363.4795151946346, "timestamp": "2025-12-05T09:41:17.889709+00:00", "meta": {"OBJECT_NAME": "STARLINK-35871", "OBJECT_ID": "2025-268K", "EPOCH": "2025-12-04T18:00:02.000160", "MEAN_MOTION": 15.69896953, "ECCENTRICITY": 0.0001622, "INCLINATION": 42.9987, "RA_OF_ASC_NODE": 168.2658, "ARG_OF_PERICENTER": 265.2427, "MEAN_ANOMALY": 41.2722, "EPHEMERIS_TYPE": 0, "CLASSIFICATION_TYPE": "U", "NORAD_CAT_ID": 66566, "ELEMENT_SET_NO": 999, "REV_AT_EPOCH": 338, "BSTAR": -0.017678, "MEAN_MOTION_DOT": -0.01931496, "MEAN_MOTION_DDOT": 0}, "tle": {"line1": "1 66566U 25268K   25338.75002315 -.01931496  00000+0 -17678-1 0  9990", "line2": "2 66566  42.9987 168.2658 0001622 265.2427  41.2722 15.69896953  3388"}}, "geometry": {"type": "Point", "coordinates": [-162.32410803278935, 27.11688682489602]}}, {"type": "Feature", "properties": {"norad_id": 66567, "name": "STARLINK-35825", "group": "last-30-days", "lat": 28.197260508670325, "lon": -160.54098647801533, "alt_km": 363.28368235578546, "timestamp": "2025-12-05T09:41:17.889718+00:00", "meta": {"OBJECT_NAME": "STARLINK-35825", "OBJECT_ID": "2025-268L", "EPOCH": "2025-12-04T18:00:02.000160", "MEAN_MOTION": 15.69898801, "ECCENTRICITY": 0.0001645, "INCLINATION": 42.9987, "RA_OF_ASC_NODE": 168.2612, "ARG_OF_PERICENTER": 268.4942, "MEAN_ANOMALY": 39.9377, "EPHEMERIS_TYPE": 0, "CLASSIFICATION_TYPE": "U", "NORAD_CAT_ID": 66567, "ELEMENT_SET_NO": 999, "REV_AT_EPOCH": 338, "BSTAR": -0.017718, "MEAN_MOTION_DOT": -0.01935443, "MEAN_MOTION_DDOT": 0}, "tle": {"line1": "1 66567U 25268L   25338.75002315 -.01935443  00000+0 -17718-1 0  9992", "line2": "2 66567  42.9987 168.2612 0001645 268.4942  39.9377 15.69898801  3385"}}, "geometry": {"type": "Point", "coordinates": [-160.54098647801533, 28.197260508670325]}}, {"type": "Feature", "properties": {"norad_id": 66568, "name": "STARLINK-35803", "group": "last-30-days", "lat": 29.253878563963948, "lon": -158.72266502498147, "alt_km": 363.0807323777808, "timestamp": "2025-12-05T09:41:17.889728+00:00", "meta": {"OBJECT_NAME": "STARLINK-35803", "OBJECT_ID": "2025-268M", "EPOCH": "2025-12-04T18:00:02.000160", "MEAN_MOTION": 15.69901309, "ECCENTRICITY": 0.0001489, "INCLINATION": 42.9987, "RA_OF_ASC_NODE": 168.2558, "ARG_OF_PERICENTER": 268.3953, "MEAN_ANOMALY": 41.9534, "EPHEMERIS_TYPE": 0, "CLASSIFICATION_TYPE": "U", "NORAD_CAT_ID": 66568, "ELEMENT_SET_NO": 999, "REV_AT_EPOCH": 338, "BSTAR": -0.017751, "MEAN_MOTION_DOT": -0.01938749, "MEAN_MOTION_DDOT": 0}, "tle": {"line1": "1 66568U 25268M   25338.75002315 -.01938749  00000+0 -17751-1 0  9992", "line2": "2 66568  42.9987 168.2558 0001489 268.3953  41.9534 15.69901309  3388"}}, "geometry": {"type": "Point", "coordinates": [-158.72266502498147, 29.253878563963948]}}, {"type": "Feature", "properties": {"norad_id": 66569, "name": "STARLINK-35835", "group": "last-30-days", "lat": 30.286612734632534, "lon": -156.8634549365348, "alt_km": 363.0514193083254, "timestamp": "2025-12-05T09:41:17.889738+00:00", "meta": {"OBJECT_NAME": "STARLINK-35835", "OBJECT_ID": "2025-268N", "EPOCH": "2025-12-04T18:00:02.000160", "MEAN_MOTION": 15.69902128, "ECCENTRICITY": 0.000162, "INCLINATION": 42.9988, "RA_OF_ASC_NODE": 168.2513, "ARG_OF_PERICENTER": 266.9073, "MEAN_ANOMALY": 45.3566, "EPHEMERIS_TYPE": 0, "CLASSIFICATION_TYPE": "U", "NORAD_CAT_ID": 66569, "ELEMENT_SET_NO": 999, "REV_AT_EPOCH": 338, "BSTAR": -0.01775, "MEAN_MOTION_DOT": -0.01938737, "MEAN_MOTION_DDOT": 0}, "tle": {"line1": "1 66569U 25268N   25338.75002315 -.01938737  00000+0 -17750-1 0  9999", "line2": "2 66569  42.9988 168.2513 0001620 266.9073  45.3566 15.69902128  3388"}}, "geometry": {"type": "Point", "coordinates": [-156.8634549365348, 30.286612734632534]}}, {"type": "Feature", "properties": {"norad_id": 66570, "name": "STARLINK-35834", "group": "last-30-days", "lat": 31.293055984972373, "lon": -154.96404386090785, "alt_km": 362.9600821547865, "timestamp": "2025-12-05T09:41:17.889750+00:00", "meta": {"OBJECT_NAME": "STARLINK-35834", "OBJECT_ID": "2025-268P", "EPOCH": "2025-12-04T18:00:02.000160", "MEAN_MOTION": 15.69903634, "ECCENTRICITY": 0.0001646, "INCLINATION": 42.9986, "RA_OF_ASC_NODE": 168.2461, "ARG_OF_PERICENTER": 265.5935, "MEAN_ANOMALY": 48.5851, "EPHEMERIS_TYPE": 0, "CLASSIFICATION_TYPE": "U", "NORAD_CAT_ID": 66570, "ELEMENT_SET_NO": 999, "REV_AT_EPOCH": 338, "BSTAR": -0.017741, "MEAN_MOTION_DOT": -0.01938013, "MEAN_MOTION_DDOT": 0}, "tle": {"line1": "1 66570U 25268P   25338.75002315 -.01938013  00000+0 -17741-1 0  9998", "line2": "2 66570  42.9986 168.2461 0001646 265.5935  48.5851 15.69903634  3385"}}, "geometry": {"type": "Point", "coordinates": [-154.96404386090785, 31.293055984972373]}}, {"type": "Feature", "properties": {"norad_id": 66571, "name": "STARLINK-35836", "group": "last-30-days", "lat": 32.269287319866926, "lon": -153.02682119060904, "alt_km": 362.78937337700063, "timestamp": "2025-12-05T09:41:17.889762+00:00", "meta": {"OBJECT_NAME": "STARLINK-35836", "OBJECT_ID": "2025-268Q", "EPOCH": "2025-12-04T18:00:02.000160", "MEAN_MOTION": 15.69904894, "ECCENTRICITY": 0.0001572, "INCLINATION": 42.9986, "RA_OF_ASC_NODE": 168.2416, "ARG_OF_PERICENTER": 266.0223, "MEAN_ANOMALY": 50.0736, "EPHEMERIS_TYPE": 0, "CLASSIFICATION_TYPE": "U", "NORAD_CAT_ID": 66571, "ELEMENT_SET_NO": 999, "REV_AT_EPOCH": 338, "BSTAR": -0.017762, "MEAN_MOTION_DOT": -0.01940112, "MEAN_MOTION_DDOT": 0}, "tle": {"line1": "1 66571U 25268Q   25338.75002315 -.01940112  00000+0 -17762-1 0  9995", "line2": "2 66571  42.9986 168.2416 0001572 266.0223  50.0736 15.69904894  3389"}}, "geometry": {"type": "Point", "coordinates": [-153.02682119060904, 32.269287319866926]}}, {"type": "Feature", "properties": {"norad_id": 66572, "name": "STARLINK-35870", "group": "last-30-days", "lat": 33.21569807608098, "lon": -151.0461081465414, "alt_km": 362.7304933150199, "timestamp": "2025-12-05T09:41:17.889772+00:00", "meta": {"OBJECT_NAME": "STARLINK-35870", "OBJECT_ID": "2025-268R", "EPOCH": "2025-12-04T18:00:02.000160", "MEAN_MOTION": 15.69903133, "ECCENTRICITY": 0.0001605, "INCLINATION": 42.9986, "RA_OF_ASC_NODE": 168.2379, "ARG_OF_PERICENTER": 263.5387, "MEAN_ANOMALY": 54.4747, "EPHEMERIS_TYPE": 0, "CLASSIFICATION_TYPE": "U", "NORAD_CAT_ID": 66572, "ELEMENT_SET_NO": 999, "REV_AT_EPOCH": 338, "BSTAR": -0.017737, "MEAN_MOTION_DOT": -0.0193758, "MEAN_MOTION_DDOT": 0}, "tle": {"line1": "1 66572U 25268R   25338.75002315 -.01937580  00000+0 -17737-1 0  9993", "line2": "2 66572  42.9986 168.2379 0001605 263.5387  54.4747 15.69903133  3383"}}, "geometry": {"type": "Point", "coordinates": [-151.0461081465414, 33.21569807608098]}}, {"type": "Feature", "properties": {"norad_id": 66573, "name": "STARLINK-35650", "group": "last-30-days", "lat": 34.13257405313074, "lon": -149.01900293500472, "alt_km": 362.4678926039214, "timestamp": "2025-12-05T09:41:17.889783+00:00", "meta": {"OBJECT_NAME": "STARLINK-35650", "OBJECT_ID": "2025-268S", "EPOCH": "2025-12-04T18:00:02.000160", "MEAN_MOTION": 15.69890847, "ECCENTRICITY": 0.0001677, "INCLINATION": 42.9986, "RA_OF_ASC_NODE": 168.2319, "ARG_OF_PERICENTER": 271.6892, "MEAN_ANOMALY": 48.2501, "EPHEMERIS_TYPE": 0, "CLASSIFICATION_TYPE": "U", "NORAD_CAT_ID": 66573, "ELEMENT_SET_NO": 999, "REV_AT_EPOCH": 338, "BSTAR": -0.017622, "MEAN_MOTION_DOT": -0.01925642, "MEAN_MOTION_DDOT": 0}, "tle": {"line1": "1 66573U 25268S   25338.75002315 -.01925642  00000+0 -17622-1 0  9993", "line2": "2 66573  42.9986 168.2319 0001677 271.6892  48.2501 15.69890847  3384"}}, "geometry": {"type": "Point", "coordinates": [-149.01900293500472, 34.13257405313074]}}]}